{
  "links" : {
    "next" : "https://api.nasa.gov/neo/rest/v1/feed?start_date=2005-07-16&end_date=2005-07-16&detailed=true&api_key=t0TVs3DtDT2H8Oy2Zy8m2eVrNsAVKAexjcZXUckd",
    "prev" : "https://api.nasa.gov/neo/rest/v1/feed?start_date=2005-07-14&end_date=2005-07-14&detailed=true&api_key=t0TVs3DtDT2H8Oy2Zy8m2eVrNsAVKAexjcZXUckd",
    "self" : "https://api.nasa.gov/neo/rest/v1/feed?start_date=2005-07-15&end_date=2005-07-15&detailed=true&api_key=t0TVs3DtDT2H8Oy2Zy8m2eVrNsAVKAexjcZXUckd"
  },
  "element_count" : 2,
  "near_earth_objects" : {
    "2005-07-15" : [ {
      "links" : {
        "self" : "https://api.nasa.gov/neo/rest/v1/neo/3277639?api_key=t0TVs3DtDT2H8Oy2Zy8m2eVrNsAVKAexjcZXUckd"
      },
      "neo_reference_id" : "3277639",
      "name" : "(2005 JN3)",
      "nasa_jpl_url" : "http://ssd.jpl.nasa.gov/sbdb.cgi?sstr=3277639",
      "absolute_magnitude_h" : 20.9,
      "estimated_diameter" : {
        "kilometers" : {
          "estimated_diameter_min" : 0.1756123185,
          "estimated_diameter_max" : 0.3926810818
        },
        "meters" : {
          "estimated_diameter_min" : 175.6123184804,
          "estimated_diameter_max" : 392.6810818086
        },
        "miles" : {
          "estimated_diameter_min" : 0.1091204019,
          "estimated_diameter_max" : 0.2440006365
        },
        "feet" : {
          "estimated_diameter_min" : 576.1559189633,
          "estimated_diameter_max" : 1288.3238004408
        }
      },
      "is_potentially_hazardous_asteroid" : false,
      "close_approach_data" : [ {
        "close_approach_date" : "2005-07-15",
        "epoch_date_close_approach" : 1121410800000,
        "relative_velocity" : {
          "kilometers_per_second" : "13.5945602658",
          "kilometers_per_hour" : "48940.4169567619",
          "miles_per_hour" : "30409.6718584947"
        },
        "miss_distance" : {
          "astronomical" : "0.3194777692",
          "lunar" : "124.2768478394",
          "kilometers" : "47793196",
          "miles" : "29697314"
        },
        "orbiting_body" : "Earth"
      } ],
      "orbital_data" : {
        "orbit_id" : "7",
        "orbit_determination_date" : "2017-04-06 09:11:01",
        "orbit_uncertainty" : "9",
        "minimum_orbit_intersection" : ".110131",
        "jupiter_tisserand_invariant" : "3.489",
        "epoch_osculation" : "2453496.5",
        "eccentricity" : ".5111554324532417",
        "semi_major_axis" : "2.175445326618046",
        "inclination" : "9.227885410567621",
        "ascending_node_longitude" : "205.9370488799172",
        "orbital_period" : "1171.981311534527",
        "perihelion_distance" : "1.063454629912215",
        "perihelion_argument" : "48.85751154069806",
        "aphelion_distance" : "3.287436023323877",
        "perihelion_time" : "2453544.837981408824",
        "mean_anomaly" : "345.1519191168741",
        "mean_motion" : ".30717213359711",
        "equinox" : "J2000"
      }
    }, {
      "links" : {
        "self" : "https://api.nasa.gov/neo/rest/v1/neo/3742059?api_key=t0TVs3DtDT2H8Oy2Zy8m2eVrNsAVKAexjcZXUckd"
      },
      "neo_reference_id" : "3742059",
      "name" : "(2016 CF31)",
      "nasa_jpl_url" : "http://ssd.jpl.nasa.gov/sbdb.cgi?sstr=3742059",
      "absolute_magnitude_h" : 21.7,
      "estimated_diameter" : {
        "kilometers" : {
          "estimated_diameter_min" : 0.1214940408,
          "estimated_diameter_max" : 0.2716689341
        },
        "meters" : {
          "estimated_diameter_min" : 121.4940407996,
          "estimated_diameter_max" : 271.6689340891
        },
        "miles" : {
          "estimated_diameter_min" : 0.0754928736,
          "estimated_diameter_max" : 0.1688071972
        },
        "feet" : {
          "estimated_diameter_min" : 398.6025088171,
          "estimated_diameter_max" : 891.3023057169
        }
      },
      "is_potentially_hazardous_asteroid" : false,
      "close_approach_data" : [ {
        "close_approach_date" : "2005-07-15",
        "epoch_date_close_approach" : 1121410800000,
        "relative_velocity" : {
          "kilometers_per_second" : "14.8645377594",
          "kilometers_per_hour" : "53512.3359337453",
          "miles_per_hour" : "33250.484513943"
        },
        "miss_distance" : {
          "astronomical" : "0.3431197708",
          "lunar" : "133.4735870361",
          "kilometers" : "51329988",
          "miles" : "31894976"
        },
        "orbiting_body" : "Earth"
      } ],
      "orbital_data" : {
        "orbit_id" : "8",
        "orbit_determination_date" : "2017-04-06 08:28:36",
        "orbit_uncertainty" : "6",
        "minimum_orbit_intersection" : ".161408",
        "jupiter_tisserand_invariant" : "5.569",
        "epoch_osculation" : "2458000.5",
        "eccentricity" : ".478789297783009",
        "semi_major_axis" : "1.085196328420773",
        "inclination" : "15.16050058582123",
        "ascending_node_longitude" : "146.6900170024424",
        "orbital_period" : "412.915228802252",
        "perihelion_distance" : ".5656159403794914",
        "perihelion_argument" : "211.1328539531482",
        "aphelion_distance" : "1.604776716462054",
        "perihelion_time" : "2458141.482351739102",
        "mean_anomaly" : "237.0845851985206",
        "mean_motion" : ".8718496555437206",
        "equinox" : "J2000"
      }
    } ]
  }
}